[{"OBJECT_NAME":"KUIPER-00141","OBJECT_ID":"2025-228V","EPOCH":"2026-03-09T03:25:37.959744","MEAN_MOTION":14.79912768,"ECCENTRICITY":0.00010182,"INCLINATION":51.9043,"RA_OF_ASC_NODE":343.1046,"ARG_OF_PERICENTER":89.0033,"MEAN_ANOMALY":271.1047,"EPHEMERIS_TYPE":0,"CLASSIFICATION_TYPE":"U","NORAD_CAT_ID":65966,"ELEMENT_SET_NO":999,"REV_AT_EPOCH":2342,"BSTAR":0.00023919972,"MEAN_MOTION_DOT":1.602e-5,"MEAN_MOTION_DDOT":0},{"OBJECT_NAME":"SL-14 R\/B","OBJECT_ID":"1990-010B","EPOCH":"2026-03-09T14:52:00.601824","MEAN_MOTION":14.83568711,"ECCENTRICITY":0.0018538,"INCLINATION":82.4987,"RA_OF_ASC_NODE":267.4549,"ARG_OF_PERICENTER":302.6174,"MEAN_ANOMALY":57.3252,"EPHEMERIS_TYPE":0,"CLASSIFICATION_TYPE":"U","NORAD_CAT_ID":20466,"ELEMENT_SET_NO":999,"REV_AT_EPOCH":92847,"BSTAR":6.0041e-5,"MEAN_MOTION_DOT":5.19e-6,"MEAN_MOTION_DDOT":0}]
